{
"type": "FeatureCollection",
"name": "rtrw_polaruang_placeholder",
"crs": { "type": "name", "properties": { "name": "urn:ogc:def:crs:OGC:1.3:CRS84" } },
"features": [
{ "type": "Feature", "properties": { "kelas_pr": "Kawasan Hutan Lindung", "kode_pr": 1 }, "geometry": { "type": "Polygon", "coordinates": [ [ [ 107.6116, -6.9325 ], [ 107.6116, -6.925 ], [ 107.6041, -6.925 ], [ 107.6041, -6.9325 ], [ 107.6116, -6.9325 ] ] ] } },
{ "type": "Feature", "properties": { "kelas_pr": "Kawasan Industri", "kode_pr": 7 }, "geometry": { "type": "Polygon", "coordinates": [ [ [ 107.6116, -6.925 ], [ 107.6116, -6.9175 ], [ 107.6041, -6.9175 ], [ 107.6041, -6.925 ], [ 107.6116, -6.925 ] ] ] } },
{ "type": "Feature", "properties": { "kelas_pr": "Kawasan Permukiman Perdesaan", "kode_pr": 6 }, "geometry": { "type": "Polygon", "coordinates": [ [ [ 107.6116, -6.9175 ], [ 107.6116, -6.91 ], [ 107.6041, -6.91 ], [ 107.6041, -6.9175 ], [ 107.6116, -6.9175 ] ] ] } },
{ "type": "Feature", "properties": { "kelas_pr": "Kawasan Perkebunan", "kode_pr": 4 }, "geometry": { "type": "Polygon", "coordinates": [ [ [ 107.6116, -6.91 ], [ 107.6116, -6.9025 ], [ 107.6041, -6.9025 ], [ 107.6041, -6.91 ], [ 107.6116, -6.91 ] ] ] } },
{ "type": "Feature", "properties": { "kelas_pr": "Kawasan Perkebunan", "kode_pr": 4 }, "geometry": { "type": "Polygon", "coordinates": [ [ [ 107.6191, -6.9325 ], [ 107.6191, -6.925 ], [ 107.6116, -6.925 ], [ 107.6116, -6.9325 ], [ 107.6191, -6.9325 ] ] ] } },
{ "type": "Feature", "properties": { "kelas_pr": "Kawasan Industri", "kode_pr": 7 }, "geometry": { "type": "Polygon", "coordinates": [ [ [ 107.6191, -6.925 ], [ 107.6191, -6.9175 ], [ 107.6116, -6.9175 ], [ 107.6116, -6.925 ], [ 107.6191, -6.925 ] ] ] } },
{ "type": "Feature", "properties": { "kelas_pr": "Kawasan Hutan Lindung", "kode_pr": 1 }, "geometry": { "type": "Polygon", "coordinates": [ [ [ 107.6191, -6.9175 ], [ 107.6191, -6.91 ], [ 107.6116, -6.91 ], [ 107.6116, -6.9175 ], [ 107.6191, -6.9175 ] ] ] } },
{ "type": "Feature", "properties": { "kelas_pr": "Kawasan Permukiman Perdesaan", "kode_pr": 6 }, "geometry": { "type": "Polygon", "coordinates": [ [ [ 107.6191, -6.91 ], [ 107.6191, -6.9025 ], [ 107.6116, -6.9025 ], [ 107.6116, -6.91 ], [ 107.6191, -6.91 ] ] ] } },
{ "type": "Feature", "properties": { "kelas_pr": "Kawasan Pertanian Lahan Basah", "kode_pr": 2 }, "geometry": { "type": "Polygon", "coordinates": [ [ [ 107.6266, -6.9325 ], [ 107.6266, -6.925 ], [ 107.6191, -6.925 ], [ 107.6191, -6.9325 ], [ 107.6266, -6.9325 ] ] ] } },
{ "type": "Feature", "properties": { "kelas_pr": "Kawasan Hutan Lindung", "kode_pr": 1 }, "geometry": { "type": "Polygon", "coordinates": [ [ [ 107.6266, -6.925 ], [ 107.6266, -6.9175 ], [ 107.6191, -6.9175 ], [ 107.6191, -6.925 ], [ 107.6266, -6.925 ] ] ] } },
{ "type": "Feature", "properties": { "kelas_pr": "Kawasan Permukiman Perkotaan", "kode_pr": 5 }, "geometry": { "type": "Polygon", "coordinates": [ [ [ 107.6266, -6.9175 ], [ 107.6266, -6.91 ], [ 107.6191, -6.91 ], [ 107.6191, -6.9175 ], [ 107.6266, -6.9175 ] ] ] } },
{ "type": "Feature", "properties": { "kelas_pr": "Badan Air", "kode_pr": 8 }, "geometry": { "type": "Polygon", "coordinates": [ [ [ 107.6266, -6.91 ], [ 107.6266, -6.9025 ], [ 107.6191, -6.9025 ], [ 107.6191, -6.91 ], [ 107.6266, -6.91 ] ] ] } },
{ "type": "Feature", "properties": { "kelas_pr": "Kawasan Permukiman Perdesaan", "kode_pr": 6 }, "geometry": { "type": "Polygon", "coordinates": [ [ [ 107.6341, -6.9325 ], [ 107.6341, -6.925 ], [ 107.6266, -6.925 ], [ 107.6266, -6.9325 ], [ 107.6341, -6.9325 ] ] ] } },
{ "type": "Feature", "properties": { "kelas_pr": "Kawasan Industri", "kode_pr": 7 }, "geometry": { "type": "Polygon", "coordinates": [ [ [ 107.6341, -6.925 ], [ 107.6341, -6.9175 ], [ 107.6266, -6.9175 ], [ 107.6266, -6.925 ], [ 107.6341, -6.925 ] ] ] } },
{ "type": "Feature", "properties": { "kelas_pr": "Kawasan Permukiman Perdesaan", "kode_pr": 6 }, "geometry": { "type": "Polygon", "coordinates": [ [ [ 107.6341, -6.9175 ], [ 107.6341, -6.91 ], [ 107.6266, -6.91 ], [ 107.6266, -6.9175 ], [ 107.6341, -6.9175 ] ] ] } },
{ "type": "Feature", "properties": { "kelas_pr": "Kawasan Industri", "kode_pr": 7 }, "geometry": { "type": "Polygon", "coordinates": [ [ [ 107.6341, -6.91 ], [ 107.6341, -6.9025 ], [ 107.6266, -6.9025 ], [ 107.6266, -6.91 ], [ 107.6341, -6.91 ] ] ] } }
]
}
