{
  "type": "FeatureCollection",
  "name": "west_java_bbox",
  "crs": {
    "type": "name",
    "properties": {
      "name": "urn:ogc:def:crs:OGC:1.3:CRS84"
    }
  },
  "features": [
    {
      "type": "Feature",
      "properties": {
        "name": "West Java (Jawa Barat), Indonesia - approximate bounding box"
      },
      "geometry": {
        "type": "Polygon",
        "coordinates": [
          [
            [106.35, -7.83],
            [108.86, -7.83],
            [108.86, -5.50],
            [106.35, -5.50],
            [106.35, -7.83]
          ]
        ]
      }
    }
  ]
}
