{
  "type": "FeatureCollection",
  "name": "west_java_boundary",
  "crs": {
    "type": "name",
    "properties": {
      "name": "urn:ogc:def:crs:OGC:1.3:CRS84"
    }
  },
  "features": [
    {
      "type": "Feature",
      "properties": {
        "name": "West Java (Jawa Barat), Indonesia",
        "PROVINSI": "Jawa Barat",
        "KODE_PROV": "32",
        "source": "denyherianto/indonesia-geojson-topojson-maps-with-38-provinces (CC BY 4.0)",
        "source_url": "https://github.com/denyherianto/indonesia-geojson-topojson-maps-with-38-provinces"
      },
      "geometry": {
        "type": "Polygon",
        "coordinates": [
          [
            [
              106.3971248,
              -6.9784542
            ],
            [
              106.5418548,
              -6.9837142
            ],
            [
              106.3705848,
              -7.279654
            ],
            [
              106.5237448,
              -7.4078539
            ],
            [
              107.4425348,
              -7.5069039
            ],
            [
              107.8469947,
              -7.7370838
            ],
            [
              108.3451747,
              -7.8182837
            ],
            [
              108.4957347,
              -7.7932338
            ],
            [
              108.5166647,
              -7.6986538
            ],
            [
              108.8011346,
              -7.6728138
            ],
            [
              108.6762946,
              -7.357594
            ],
            [
              108.5565647,
              -7.287034
            ],
            [
              108.5622447,
              -7.1713341
            ],
            [
              108.7667046,
              -7.1134741
            ],
            [
              108.8308146,
              -6.7849543
            ],
            [
              108.5979647,
              -6.7580243
            ],
            [
              108.5352047,
              -6.4806844
            ],
            [
              108.3616647,
              -6.2608945
            ],
            [
              108.2109547,
              -6.2356045
            ],
            [
              108.0975947,
              -6.3285645
            ],
            [
              107.8984947,
              -6.1877546
            ],
            [
              107.6788547,
              -6.2372145
            ],
            [
              107.4732548,
              -6.1485946
            ],
            [
              107.3455948,
              -5.9717647
            ],
            [
              107.0079248,
              -5.9206047
            ],
            [
              106.9700348,
              -6.0907146
            ],
            [
              106.9178248,
              -6.3503045
            ],
            [
              106.7798648,
              -6.3165245
            ],
            [
              106.4267048,
              -6.3478945
            ],
            [
              106.4291248,
              -6.6802043
            ],
            [
              106.5261648,
              -6.7678443
            ],
            [
              106.3971248,
              -6.9784542
            ]
          ]
        ]
      }
    }
  ]
}